[{"OBJECT_NAME":"NEXSAT-1","OBJECT_ID":"2024-024E","EPOCH":"2026-03-09T22:47:24.778176","MEAN_MOTION":15.32166372,"ECCENTRICITY":0.00099795,"INCLINATION":97.3124,"RA_OF_ASC_NODE":144.1918,"ARG_OF_PERICENTER":108.5709,"MEAN_ANOMALY":251.6617,"EPHEMERIS_TYPE":0,"CLASSIFICATION_TYPE":"U","NORAD_CAT_ID":58921,"ELEMENT_SET_NO":999,"REV_AT_EPOCH":11669,"BSTAR":0.00031433612,"MEAN_MOTION_DOT":9.702e-5,"MEAN_MOTION_DDOT":0},{"OBJECT_NAME":"STARLINK-31335","OBJECT_ID":"2024-031E","EPOCH":"2026-03-09T21:35:06.467424","MEAN_MOTION":15.30192475,"ECCENTRICITY":0.00012727,"INCLINATION":53.1595,"RA_OF_ASC_NODE":293.0019,"ARG_OF_PERICENTER":72.9439,"MEAN_ANOMALY":287.1701,"EPHEMERIS_TYPE":0,"CLASSIFICATION_TYPE":"U","NORAD_CAT_ID":58969,"ELEMENT_SET_NO":999,"REV_AT_EPOCH":11660,"BSTAR":3.8661629e-5,"MEAN_MOTION_DOT":7.86e-6,"MEAN_MOTION_DDOT":0}]
